{
  "type": "FeatureCollection",
  "features": [
    {
      "type": "Feature",
      "properties": {
        "norad_id": 40010,
        "name": "KAZEOSAT 2",
        "group": "resource",
        "lat": 82.10926704232881,
        "lon": 132.3453190568767,
        "alt_km": 603.17069370222,
        "timestamp": "2025-12-27T22:26:48.270046+00:00",
        "meta_object_name": "KAZEOSAT 2",
        "meta_object_id": "2014-033A",
        "meta_epoch": "2025-12-27T12:21:04.812192",
        "meta_mean_motion": 14.8519096,
        "meta_eccentricity": 0.000894,
        "meta_inclination": 97.5497,
        "meta_ra_of_asc_node": 205.0659,
        "meta_arg_of_pericenter": 157.0117,
        "meta_mean_anomaly": 203.1501,
        "meta_ephemeris_type": 0,
        "meta_classification_type": "U",
        "meta_norad_cat_id": 40010,
        "meta_element_set_no": 999,
        "meta_rev_at_epoch": 62347,
        "meta_bstar": 8.403e-05,
        "meta_mean_motion_dot": 6.7e-06,
        "meta_mean_motion_ddot": 0,
        "tle_line1": "1 40010U 14033A   25361.51463903  .00000670  00000+0  84030-4 0  9995",
        "tle_line2": "2 40010  97.5497 205.0659 0008940 157.0117 203.1501 14.85190960623475"
      },
      "geometry": {
        "type": "Point",
        "coordinates": [
          132.3453190568767,
          82.10926704232881
        ]
      }
    },
    {
      "type": "Feature",
      "properties": {
        "norad_id": 40011,
        "name": "HODOYOSHI-4",
        "group": "resource",
        "lat": -56.42509231096223,
        "lon": -158.41714646606988,
        "alt_km": 627.8650785462733,
        "timestamp": "2025-12-27T22:26:48.270056+00:00",
        "meta_object_name": "HODOYOSHI-4",
        "meta_object_id": "2014-033B",
        "meta_epoch": "2025-12-27T13:01:05.438784",
        "meta_mean_motion": 14.87536602,
        "meta_eccentricity": 0.0024426,
        "meta_inclination": 97.5413,
        "meta_ra_of_asc_node": 189.697,
        "meta_arg_of_pericenter": 151.5405,
        "meta_mean_anomaly": 208.7152,
        "meta_ephemeris_type": 0,
        "meta_classification_type": "U",
        "meta_norad_cat_id": 40011,
        "meta_element_set_no": 999,
        "meta_rev_at_epoch": 62328,
        "meta_bstar": 0.00036073,
        "meta_mean_motion_dot": 3.239e-05,
        "meta_mean_motion_ddot": 0,
        "tle_line1": "1 40011U 14033B   25361.54242406  .00003239  00000+0  36073-3 0  9999",
        "tle_line2": "2 40011  97.5413 189.6970 0024426 151.5405 208.7152 14.87536602623284"
      },
      "geometry": {
        "type": "Point",
        "coordinates": [
          -158.41714646606988,
          -56.42509231096223
        ]
      }
    },
    {
      "type": "Feature",
      "properties": {
        "norad_id": 40013,
        "name": "DEIMOS-2",
        "group": "resource",
        "lat": 39.767786332182034,
        "lon": -129.15024334663946,
        "alt_km": 585.094485309467,
        "timestamp": "2025-12-27T22:26:48.270069+00:00",
        "meta_object_name": "DEIMOS-2",
        "meta_object_id": "2014-033D",
        "meta_epoch": "2025-12-27T12:36:59.518368",
        "meta_mean_motion": 14.93033046,
        "meta_eccentricity": 0.0001503,
        "meta_inclination": 97.605,
        "meta_ra_of_asc_node": 236.8378,
        "meta_arg_of_pericenter": 111.5727,
        "meta_mean_anomaly": 248.5654,
        "meta_ephemeris_type": 0,
        "meta_classification_type": "U",
        "meta_norad_cat_id": 40013,
        "meta_element_set_no": 999,
        "meta_rev_at_epoch": 61210,
        "meta_bstar": 6.8598e-05,
        "meta_mean_motion_dot": 6.59e-06,
        "meta_mean_motion_ddot": 0,
        "tle_line1": "1 40013U 14033D   25361.52568887  .00000659  00000+0  68598-4 0  9994",
        "tle_line2": "2 40013  97.6050 236.8378 0001503 111.5727 248.5654 14.93033046612104"
      },
      "geometry": {
        "type": "Point",
        "coordinates": [
          -129.15024334663946,
          39.767786332182034
        ]
      }
    },
    {
      "type": "Feature",
      "properties": {
        "norad_id": 40015,
        "name": "HODOYOSHI-3",
        "group": "resource",
        "lat": 78.74073213457955,
        "lon": 124.84872024110675,
        "alt_km": 616.1980342866646,
        "timestamp": "2025-12-27T22:26:48.270079+00:00",
        "meta_object_name": "HODOYOSHI-3",
        "meta_object_id": "2014-033F",
        "meta_epoch": "2025-12-27T10:45:25.135776",
        "meta_mean_motion": 14.84857805,
        "meta_eccentricity": 0.0032702,
        "meta_inclination": 97.6206,
        "meta_ra_of_asc_node": 166.6445,
        "meta_arg_of_pericenter": 198.0165,
        "meta_mean_anomaly": 161.9894,
        "meta_ephemeris_type": 0,
        "meta_classification_type": "U",
        "meta_norad_cat_id": 40015,
        "meta_element_set_no": 999,
        "meta_rev_at_epoch": 62213,
        "meta_bstar": 0.00021486,
        "meta_mean_motion_dot": 1.791e-05,
        "meta_mean_motion_ddot": 0,
        "tle_line1": "1 40015U 14033F   25361.44820759  .00001791  00000+0  21486-3 0  9998",
        "tle_line2": "2 40015  97.6206 166.6445 0032702 198.0165 161.9894 14.84857805622130"
      },
      "geometry": {
        "type": "Point",
        "coordinates": [
          124.84872024110675,
          78.74073213457955
        ]
      }
    },
    {
      "type": "Feature",
      "properties": {
        "norad_id": 40053,
        "name": "SPOT 7",
        "group": "resource",
        "lat": -69.00832127177182,
        "lon": 85.4126610301042,
        "alt_km": 698.9262492644593,
        "timestamp": "2025-12-27T22:26:48.270088+00:00",
        "meta_object_name": "SPOT 7",
        "meta_object_id": "2014-034A",
        "meta_epoch": "2025-12-27T11:15:41.776992",
        "meta_mean_motion": 14.60752947,
        "meta_eccentricity": 0.0001513,
        "meta_inclination": 98.0882,
        "meta_ra_of_asc_node": 63.2038,
        "meta_arg_of_pericenter": 80.0921,
        "meta_mean_anomaly": 280.0451,
        "meta_ephemeris_type": 0,
        "meta_classification_type": "U",
        "meta_norad_cat_id": 40053,
        "meta_element_set_no": 999,
        "meta_rev_at_epoch": 61206,
        "meta_bstar": 0.00017097,
        "meta_mean_motion_dot": 7.88e-06,
        "meta_mean_motion_ddot": 0,
        "tle_line1": "1 40053U 14034A   25361.46923353  .00000788  00000+0  17097-3 0  9995",
        "tle_line2": "2 40053  98.0882  63.2038 0001513  80.0921 280.0451 14.60752947612061"
      },
      "geometry": {
        "type": "Point",
        "coordinates": [
          85.4126610301042,
          -69.00832127177182
        ]
      }
    },
    {
      "type": "Feature",
      "properties": {
        "norad_id": 40072,
        "name": "SKYSAT-B",
        "group": "resource",
        "lat": -57.64865237565735,
        "lon": 113.0165825288843,
        "alt_km": 616.3578934308916,
        "timestamp": "2025-12-27T22:26:48.270098+00:00",
        "meta_object_name": "SKYSAT-B",
        "meta_object_id": "2014-037D",
        "meta_epoch": "2025-12-26T19:32:42.335232",
        "meta_mean_motion": 14.87377636,
        "meta_eccentricity": 0.00068783,
        "meta_inclination": 98.363,
        "meta_ra_of_asc_node": 305.2652,
        "meta_arg_of_pericenter": 111.2738,
        "meta_mean_anomaly": 248.9212,
        "meta_ephemeris_type": 0,
        "meta_classification_type": "U",
        "meta_norad_cat_id": 40072,
        "meta_element_set_no": 999,
        "meta_rev_at_epoch": 62033,
        "meta_bstar": 0.00022123811,
        "meta_mean_motion_dot": 1.939e-05,
        "meta_mean_motion_ddot": 0,
        "tle_line1": "1 40072U 14037D   25360.81437888  .00001939  00000+0  22124-3 0  9996",
        "tle_line2": "2 40072  98.3630 305.2652 0006878 111.2738 248.9212 14.87377636620333"
      },
      "geometry": {
        "type": "Point",
        "coordinates": [
          113.0165825288843,
          -57.64865237565735
        ]
      }
    },
    {
      "type": "Feature",
      "properties": {
        "norad_id": 40115,
        "name": "WORLDVIEW-3 (WV-3)",
        "group": "resource",
        "lat": -2.364852990006718,
        "lon": 74.35808343594745,
        "alt_km": 618.7976062594371,
        "timestamp": "2025-12-27T22:26:48.270108+00:00",
        "meta_object_name": "WORLDVIEW-3 (WV-3)",
        "meta_object_id": "2014-048A",
        "meta_epoch": "2025-12-27T11:08:05.965152",
        "meta_mean_motion": 14.84682122,
        "meta_eccentricity": 0.0002131,
        "meta_inclination": 97.8762,
        "meta_ra_of_asc_node": 73.5649,
        "meta_arg_of_pericenter": 125.7387,
        "meta_mean_anomaly": 234.4026,
        "meta_ephemeris_type": 0,
        "meta_classification_type": "U",
        "meta_norad_cat_id": 40115,
        "meta_element_set_no": 999,
        "meta_rev_at_epoch": 61642,
        "meta_bstar": 0.00015421,
        "meta_mean_motion_dot": 1.252e-05,
        "meta_mean_motion_ddot": 0,
        "tle_line1": "1 40115U 14048A   25361.46395793  .00001252  00000+0  15421-3 0  9996",
        "tle_line2": "2 40115  97.8762  73.5649 0002131 125.7387 234.4026 14.84682122616424"
      },
      "geometry": {
        "type": "Point",
        "coordinates": [
          74.35808343594745,
          -2.364852990006718
        ]
      }
    }
  ]
}